OBJECT_NAME,OBJECT_ID,EPOCH,MEAN_MOTION,ECCENTRICITY,INCLINATION,RA_OF_ASC_NODE,ARG_OF_PERICENTER,MEAN_ANOMALY,EPHEMERIS_TYPE,CLASSIFICATION_TYPE,NORAD_CAT_ID,ELEMENT_SET_NO,REV_AT_EPOCH,BSTAR,MEAN_MOTION_DOT,MEAN_MOTION_DDOT
STARLINK-37106,2026-053N,2026-07-12T02:13:18.478272,15.33444487,.00012242,97.2876,67.8719,108.9144,251.2232,0,U,68219,999,1928,.30816633E-3,.9887E-4,0
STARLINK-37030,2026-053P,2026-07-12T02:05:28.838976,15.33445404,.00016566,97.2854,67.8751,104.9272,255.2154,0,U,68220,999,1928,.5426186E-3,.17484E-3,0
STARLINK-37012,2026-053Q,2026-07-12T02:09:23.751936,15.33443200,.0001689,97.2861,67.8749,102.5859,257.5573,0,U,68221,999,1928,.32764399E-3,.10517E-3,0
STARLINK-37110,2026-053R,2026-07-11T21:19:39.600192,15.33448429,.0001603,97.2861,67.6892,93.4065,266.7362,0,U,68222,999,1925,.21609E-3,.6908E-4,0
STARLINK-37025,2026-053S,2026-07-12T03:31:37.139232,15.33446943,.00018414,97.2839,67.9518,87.9527,272.1926,0,U,68223,999,1929,.44770595E-3,.14407E-3,0
STARLINK-36960,2026-053U,2026-07-12T03:23:47.022144,15.33450544,.00013465,97.2868,67.9596,89.6132,270.5266,0,U,68225,999,1927,.43178958E-3,.13893E-3,0
STARLINK-37038,2026-053V,2026-07-11T16:18:10.929888,15.33442110,.00016859,97.2867,67.5153,105.8493,254.2936,0,U,68226,999,1920,.32686083E-3,.10491E-3,0
STARLINK-37083,2026-053W,2026-07-12T01:45:54.038304,15.33449604,.00013832,97.2870,67.8985,84.0839,276.0561,0,U,68227,999,1925,.38355436E-3,.1233E-3,0
STARLINK-37050,2026-053X,2026-07-12T03:12:02.291904,15.33452327,.00010473,97.2874,67.9711,82.8505,277.2857,0,U,68228,999,1927,.38018751E-3,.12221E-3,0
STARLINK-37081,2026-053Y,2026-07-12T02:28:23.253024,15.33427738,.00013433,97.2854,70.9028,90.7544,269.3853,0,U,68229,999,1948,.61524E-3,.19829E-3,0
STARLINK-37100,2026-053Z,2026-07-12T03:08:07.511136,15.33447689,.00014281,97.2866,67.9746,84.7576,275.3830,0,U,68230,999,1929,.29938024E-3,.9603E-4,0
STARLINK-37104,2026-053AA,2026-07-12T03:04:12.354528,15.33451556,.00011677,97.2861,67.9760,61.9478,298.1882,0,U,68231,999,1929,.41410793E-3,.1332E-3,0
STARLINK-37027,2026-054A,2026-07-12T00:47:20.825952,15.34408174,.00011777,53.1586,71.1333,100.2801,259.8334,0,U,68232,999,1814,.59931564E-3,.19932E-3,0
STARLINK-37132,2026-054B,2026-07-11T19:38:42.322560,15.34395891,.00015356,53.1593,71.9814,39.4577,320.6537,0,U,68233,999,1811,.51498802E-3,.17061E-3,0
STARLINK-37101,2026-054C,2026-07-12T06:00:02.000160,15.37451756,.00006461,53.1600,70.4356,101.8087,258.1372,0,U,68234,999,577,-.80485133E-1,-.2679387E-1,0
STARLINK-36963,2026-054D,2026-07-11T20:51:24.845184,15.34413199,.00022424,53.1590,72.2462,33.4192,326.6952,0,U,68235,999,1811,.19643478E-3,.6269E-4,0
STARLINK-37127,2026-054E,2026-07-12T06:00:02.000160,15.35417905,.00011948,53.1605,70.4912,91.9416,238.7514,0,U,68236,999,593,-.46600664E-3,-.16609E-3,0
STARLINK-37095,2026-054F,2026-07-11T20:48:22.618080,15.34392946,.00014655,53.1587,72.2309,125.6575,234.4565,0,U,68237,999,1811,.48899531E-3,.16177E-3,0
STARLINK-37097,2026-054G,2026-07-11T19:56:52.321632,15.34390421,.00012588,53.1584,72.0081,99.4759,260.6386,0,U,68238,999,1811,.25584303E-3,.8275E-4,0
STARLINK-37096,2026-054H,2026-07-12T00:44:18.988512,15.34403148,.00008976,53.1571,71.1244,130.5946,229.5135,0,U,68239,999,1814,.64569922E-3,.21505E-3,0
STARLINK-37092,2026-054J,2026-07-12T01:11:07.163808,15.35411368,.00006757,53.1593,71.3056,355.0808,5.0188,0,U,68240,999,1814,.40208401E-3,.13676E-3,0
STARLINK-37094,2026-054K,2026-07-11T21:08:46.303008,15.34391011,.0001367,53.1600,79.5218,82.9979,277.1179,0,U,68241,999,1801,.59772E-3,.19867E-3,0
STARLINK-36356,2026-054L,2026-07-11T20:38:33.410688,15.30194653,.00018755,53.1586,80.1048,51.1114,309.0054,0,U,68242,999,1800,.53743485E-3,.15589E-3,0
STARLINK-36345,2026-054M,2026-07-11T19:47:47.001984,15.34403155,.00010656,53.1577,71.9629,71.4352,288.6766,0,U,68243,999,1811,.38369896E-3,.12611E-3,0
STARLINK-36310,2026-054N,2026-07-12T02:28:15.477024,15.35416753,.00012786,53.1602,70.9149,85.2531,274.8618,0,U,68244,999,1815,.40435527E-3,.13757E-3,0
STARLINK-36247,2026-054P,2026-07-12T01:26:43.832256,15.34422031,.00010783,53.1598,71.3645,57.3394,302.7713,0,U,68245,999,1814,.53618253E-3,.17795E-3,0
STARLINK-37043,2026-054Q,2026-07-12T02:32:32.533440,15.35422652,.00006913,53.1602,70.9403,136.1592,223.9466,0,U,68246,999,1815,.73399848E-3,.25327E-3,0
STARLINK-37044,2026-054R,2026-07-11T19:41:43.953504,15.34399327,.00010815,53.1593,71.9993,93.6306,266.4820,0,U,68247,999,1811,.38538294E-3,.12666E-3,0
STARLINK-36997,2026-054S,2026-07-11T04:06:06.284448,15.34405070,.00012806,53.1595,82.9140,84.9034,275.2115,0,U,68248,999,1790,.62693386E-3,.20868E-3,0
STARLINK-37141,2026-054T,2026-07-11T21:06:26.573472,15.34389497,.00014035,53.1605,71.6646,50.3599,309.7527,0,U,68249,999,1812,.42281134E-3,.13931E-3,0
