STARLINK-37106          
1 68219U 26053N   26193.09257498  .00009887  00000+0  30817-3 0  9990
2 68219  97.2876  67.8719 0001224 108.9144 251.2232 15.33444487 19281
STARLINK-37030          
1 68220U 26053P   26193.08713934  .00017484  00000+0  54262-3 0  9995
2 68220  97.2854  67.8751 0001656 104.9272 255.2154 15.33445404 19289
STARLINK-37012          
1 68221U 26053Q   26193.08985824  .00010517  00000+0  32764-3 0  9998
2 68221  97.2861  67.8749 0001689 102.5859 257.5573 15.33443200 19288
STARLINK-37110          
1 68222U 26053R   26192.88865278  .00006908  00000+0  21609-3 0  9991
2 68222  97.2861  67.6892 0001603  93.4065 266.7362 15.33448429 19252
STARLINK-37025          
1 68223U 26053S   26193.14695763  .00014407  00000+0  44771-3 0  9990
2 68223  97.2839  67.9518 0001841  87.9527 272.1926 15.33446943 19291
STARLINK-36960          
1 68225U 26053U   26193.14151646  .00013893  00000+0  43179-3 0  9998
2 68225  97.2868  67.9596 0001346  89.6132 270.5266 15.33450544 19271
STARLINK-37038          
1 68226U 26053V   26192.67929317  .00010491  00000+0  32686-3 0  9996
2 68226  97.2867  67.5153 0001685 105.8493 254.2936 15.33442110 19209
STARLINK-37083          
1 68227U 26053W   26193.07354211  .00012330  00000+0  38355-3 0  9990
2 68227  97.2870  67.8985 0001383  84.0839 276.0561 15.33449604 19253
STARLINK-37050          
1 68228U 26053X   26193.13335986  .00012221  00000+0  38019-3 0  9992
2 68228  97.2874  67.9711 0001047  82.8505 277.2857 15.33452327 19278
STARLINK-37081          
1 68229U 26053Y   26193.10304691  .00019829  00000+0  61524-3 0  9997
2 68229  97.2854  70.9028 0001343  90.7544 269.3853 15.33427738 19481
STARLINK-37100          
1 68230U 26053Z   26193.13064249  .00009603  00000+0  29938-3 0  9996
2 68230  97.2866  67.9746 0001428  84.7576 275.3830 15.33447689 19299
STARLINK-37104          
1 68231U 26053AA  26193.12792077  .00013320  00000+0  41411-3 0  9994
2 68231  97.2861  67.9760 0001167  61.9478 298.1882 15.33451556 19297
STARLINK-37027          
1 68232U 26054A   26193.03287993  .00019932  00000+0  59932-3 0  9994
2 68232  53.1586  71.1333 0001177 100.2801 259.8334 15.34408174 18142
STARLINK-37132          
1 68233U 26054B   26192.81854540  .00017061  00000+0  51499-3 0  9999
2 68233  53.1593  71.9814 0001535  39.4577 320.6537 15.34395891 18114
STARLINK-37101          
1 68234U 26054C   26193.25002315 -.02679387  00000+0 -80485-1 0  9998
2 68234  53.1600  70.4356 0000646 101.8087 258.1372 15.37451756  5777
STARLINK-36963          
1 68235U 26054D   26192.86903756  .00006269  00000+0  19643-3 0  9993
2 68235  53.1590  72.2462 0002242  33.4192 326.6952 15.34413199 18118
STARLINK-37127          
1 68236U 26054E   26193.25002315 -.00016609  00000+0 -46601-3 0  9994
2 68236  53.1605  70.4912 0001194  91.9416 238.7514 15.35417905  5932
STARLINK-37095          
1 68237U 26054F   26192.86692845  .00016177  00000+0  48900-3 0  9996
2 68237  53.1587  72.2309 0001465 125.6575 234.4565 15.34392946 18113
STARLINK-37097          
1 68238U 26054G   26192.83116113  .00008275  00000+0  25584-3 0  9996
2 68238  53.1584  72.0081 0001258  99.4759 260.6386 15.34390421 18116
STARLINK-37096          
1 68239U 26054H   26193.03077533  .00021505  00000+0  64570-3 0  9991
2 68239  53.1571  71.1244 0000897 130.5946 229.5135 15.34403148 18147
STARLINK-37092          
1 68240U 26054J   26193.04938847  .00013676  00000+0  40208-3 0  9990
2 68240  53.1593  71.3056 0000675 355.0808   5.0188 15.35411368 18140
STARLINK-37094          
1 68241U 26054K   26192.88109147  .00019867  00000+0  59772-3 0  9999
2 68241  53.1600  79.5218 0001367  82.9979 277.1179 15.34391011 18013
STARLINK-36356          
1 68242U 26054L   26192.86010892  .00015589  00000+0  53743-3 0  9995
2 68242  53.1586  80.1048 0001875  51.1114 309.0054 15.30194653 18004
STARLINK-36345          
1 68243U 26054M   26192.82484956  .00012611  00000+0  38370-3 0  9990
2 68243  53.1577  71.9629 0001065  71.4352 288.6766 15.34403155 18116
STARLINK-36310          
1 68244U 26054N   26193.10295691  .00013757  00000+0  40436-3 0  9997
2 68244  53.1602  70.9149 0001278  85.2531 274.8618 15.35416753 18156
STARLINK-36247          
1 68245U 26054P   26193.06022954  .00017795  00000+0  53618-3 0  9995
2 68245  53.1598  71.3645 0001078  57.3394 302.7713 15.34422031 18143
STARLINK-37043          
1 68246U 26054Q   26193.10593210  .00025327  00000+0  73400-3 0  9990
2 68246  53.1602  70.9403 0000691 136.1592 223.9466 15.35422652 18153
STARLINK-37044          
1 68247U 26054R   26192.82064761  .00012666  00000+0  38538-3 0  9998
2 68247  53.1593  71.9993 0001081  93.6306 266.4820 15.34399327 18115
STARLINK-36997          
1 68248U 26054S   26192.17090607  .00020868  00000+0  62693-3 0  9997
2 68248  53.1595  82.9140 0001280  84.9034 275.2115 15.34405070 17900
STARLINK-37141          
1 68249U 26054T   26192.87947423  .00013931  00000+0  42281-3 0  9996
2 68249  53.1605  71.6646 0001403  50.3599 309.7527 15.34389497 18128
